[{"OBJECT_NAME":"KUIPER-00065","OBJECT_ID":"2025-134AB","EPOCH":"2026-03-09T16:33:07.968384","MEAN_MOTION":14.799424,"ECCENTRICITY":7.199e-5,"INCLINATION":51.9035,"RA_OF_ASC_NODE":240.6799,"ARG_OF_PERICENTER":80.086,"MEAN_ANOMALY":280.0184,"EPHEMERIS_TYPE":0,"CLASSIFICATION_TYPE":"U","NORAD_CAT_ID":64525,"ELEMENT_SET_NO":999,"REV_AT_EPOCH":3995,"BSTAR":0.00062633885,"MEAN_MOTION_DOT":4.558e-5,"MEAN_MOTION_DDOT":0},{"OBJECT_NAME":"IRIDIUM 33 DEB","OBJECT_ID":"1997-051JH","EPOCH":"2026-03-09T13:15:18.671616","MEAN_MOTION":14.77407981,"ECCENTRICITY":0.00147749,"INCLINATION":86.306,"RA_OF_ASC_NODE":267.8432,"ARG_OF_PERICENTER":223.6239,"MEAN_ANOMALY":189.8815,"EPHEMERIS_TYPE":0,"CLASSIFICATION_TYPE":"U","NORAD_CAT_ID":34540,"ELEMENT_SET_NO":999,"REV_AT_EPOCH":90302,"BSTAR":0.0014657078,"MEAN_MOTION_DOT":0.00010475,"MEAN_MOTION_DDOT":0}]
